start=new Date('2022-09-18T00:00:00.000Z').valueOf();
sats=[{"TLE_LINE2":"2 45668  53.0564   3.2710 0001416  68.1070 292.0069 15.06388805127474","PERIAPSIS":"546.267","SITE":"AFETR","DECAY_DATE":null,"COUNTRY_CODE":"US","RCS_SIZE":"LARGE","INCLINATION":"53.0564","MEAN_ANOMALY":"292.0069","EPOCH":"2022-09-17T17:11:19.441536","APOAPSIS":"548.229","CLASSIFICATION_TYPE":"U","SEMIMAJOR_AXIS":"6925.383","LAUNCH_DATE":"2020-06-04","REV_AT_EPOCH":"12747","MEAN_MOTION_DDOT":"0.0000000000000","MEAN_MOTION":"15.06388805","GP_ID":"212867962","NORAD_CAT_ID":"45668","CENTER_NAME":"EARTH","RA_OF_ASC_NODE":"3.2710","BSTAR":"0.00007888300000","ELEMENT_SET_NO":"999","OBJECT_TYPE":"PAYLOAD","TIME_SYSTEM":"UTC","FILE":"3576621","MEAN_ELEMENT_THEORY":"SGP4","EPHEMERIS_TYPE":"0","PERIOD":"95.593","ECCENTRICITY":"0.00014160","OBJECT_ID":"2020-035M","REF_FRAME":"TEME","TLE_LINE1":"1 45668U 20035M   22260.71619724  .00000893  00000-0  78883-4 0  9996","MEAN_MOTION_DOT":"0.00000893","OBJECT_NAME":"STARLINK-1451","ARG_OF_PERICENTER":"68.1070"},{"LAUNCH_DATE":"2020-06-04","REV_AT_EPOCH":"12744","MEAN_MOTION_DDOT":"0.0000000000000","MEAN_MOTION":"15.06397654","GP_ID":"212867685","APOAPSIS":"548.071","SEMIMAJOR_AXIS":"6925.356","CLASSIFICATION_TYPE":"U","RCS_SIZE":"LARGE","INCLINATION":"53.0567","MEAN_ANOMALY":"273.3111","EPOCH":"2022-09-17T13:35:03.956064","TLE_LINE2":"2 45669  53.0567   3.9316 0001228  86.8018 273.3111 15.06397654127446","SITE":"AFETR","DECAY_DATE":null,"PERIAPSIS":"546.370","COUNTRY_CODE":"US","MEAN_MOTION_DOT":"-0.00000785","OBJECT_NAME":"STARLINK-1452","ARG_OF_PERICENTER":"86.8018","ECCENTRICITY":"0.00012280","OBJECT_ID":"2020-035N","TLE_LINE1":"1 45669U 20035N   22260.56601801 -.00000785  00000-0 -33844-4 0  9997","REF_FRAME":"TEME","FILE":"3576621","MEAN_ELEMENT_THEORY":"SGP4","TIME_SYSTEM":"UTC","EPHEMERIS_TYPE":"0","PERIOD":"95.592","CENTER_NAME":"EARTH","NORAD_CAT_ID":"45669","RA_OF_ASC_NODE":"3.9316","ELEMENT_SET_NO":"999","BSTAR":"-0.00003384400000","OBJECT_TYPE":"PAYLOAD"},{"RCS_SIZE":"LARGE","MEAN_ANOMALY":"283.5491","INCLINATION":"53.0557","EPOCH":"2022-09-17T14:58:40.238112","TLE_LINE2":"2 45670  53.0557 333.6852 0001394  76.5653 283.5491 15.06388368127761","PERIAPSIS":"546.284","DECAY_DATE":null,"SITE":"AFETR","COUNTRY_CODE":"US","LAUNCH_DATE":"2020-06-04","REV_AT_EPOCH":"12776","MEAN_MOTION_DDOT":"0.0000000000000","MEAN_MOTION":"15.06388368","GP_ID":"212866463","APOAPSIS":"548.215","CLASSIFICATION_TYPE":"U","SEMIMAJOR_AXIS":"6925.384","TIME_SYSTEM":"UTC","MEAN_ELEMENT_THEORY":"SGP4","FILE":"3576621","EPHEMERIS_TYPE":"0","PERIOD":"95.593","NORAD_CAT_ID":"45670","CENTER_NAME":"EARTH","RA_OF_ASC_NODE":"333.6852","ELEMENT_SET_NO":"999","BSTAR":"-0.00006743900000","OBJECT_TYPE":"PAYLOAD","MEAN_MOTION_DOT":"-0.00001285","ARG_OF_PERICENTER":"76.5653","OBJECT_NAME":"STARLINK-1453","ECCENTRICITY":"0.00013940","OBJECT_ID":"2020-035P","REF_FRAME":"TEME","TLE_LINE1":"1 45670U 20035P   22260.62407683 -.00001285  00000-0 -67439-4 0  9991"},{"NORAD_CAT_ID":"45671","CENTER_NAME":"EARTH","RA_OF_ASC_NODE":"3.9143","BSTAR":"-0.00061983000000","ELEMENT_SET_NO":"999","OBJECT_TYPE":"PAYLOAD","TIME_SYSTEM":"UTC","FILE":"3576621","MEAN_ELEMENT_THEORY":"SGP4","EPHEMERIS_TYPE":"0","PERIOD":"95.591","ECCENTRICITY":"0.00012050","OBJECT_ID":"2020-035Q","REF_FRAME":"TEME","TLE_LINE1":"1 45671U 20035Q   22260.56970315 -.00009508  00000-0 -61983-3 0  9995","MEAN_MOTION_DOT":"-0.00009508","OBJECT_NAME":"STARLINK-1454","ARG_OF_PERICENTER":"79.0013","TLE_LINE2":"2 45671  53.0565   3.9143 0001205  79.0013 281.1112 15.06425143127431","PERIAPSIS":"546.302","DECAY_DATE":null,"SITE":"AFETR","COUNTRY_CODE":"US","RCS_SIZE":"LARGE","MEAN_ANOMALY":"281.1112","INCLINATION":"53.0565","EPOCH":"2022-09-17T13:40:22.352160","APOAPSIS":"547.971","CLASSIFICATION_TYPE":"U","SEMIMAJOR_AXIS":"6925.271","LAUNCH_DATE":"2020-06-04","REV_AT_EPOCH":"12743","MEAN_MOTION_DDOT":"0.0000000000000","MEAN_MOTION":"15.06425143","GP_ID":"212866713"},{"ELEMENT_SET_NO":"999","BSTAR":"-0.00011482000000","OBJECT_TYPE":"PAYLOAD","CENTER_NAME":"EARTH","NORAD_CAT_ID":"45672","RA_OF_ASC_NODE":"334.1833","EPHEMERIS_TYPE":"0","PERIOD":"95.593","MEAN_ELEMENT_THEORY":"SGP4","FILE":"3576375","TIME_SYSTEM":"UTC","OBJECT_ID":"2020-035R","TLE_LINE1":"1 45672U 20035R   22260.51350254 -.00001991  00000-0 -11482-3 0  9992","REF_FRAME":"TEME","ECCENTRICITY":"0.00014540","MEAN_MOTION_DOT":"-0.00001991","ARG_OF_PERICENTER":"69.5362","OBJECT_NAME":"STARLINK-1455","DECAY_DATE":null,"SITE":"AFETR","PERIAPSIS":"546.238","COUNTRY_CODE":"US","TLE_LINE2":"2 45672  53.0573 334.1833 0001454  69.5362 290.5784 15.06389861127854","MEAN_ANOMALY":"290.5784","INCLINATION":"53.0573","EPOCH":"2022-09-17T12:19:26.619456","RCS_SIZE":"LARGE","SEMIMAJOR_AXIS":"6925.380","CLASSIFICATION_TYPE":"U","APOAPSIS":"548.252","MEAN_MOTION":"15.06389861","GP_ID":"212810488","MEAN_MOTION_DDOT":"0.0000000000000","LAUNCH_DATE":"2020-06-04","REV_AT_EPOCH":"12785"},{"RA_OF_ASC_NODE":"3.8512","CENTER_NAME":"EARTH","NORAD_CAT_ID":"45673","OBJECT_TYPE":"PAYLOAD","BSTAR":"-0.00011339000000","ELEMENT_SET_NO":"999","FILE":"3576621","MEAN_ELEMENT_THEORY":"SGP4","TIME_SYSTEM":"UTC","PERIOD":"95.592","EPHEMERIS_TYPE":"0","ECCENTRICITY":"0.00013450","TLE_LINE1":"1 45673U 20035S   22260.58445172 -.00001970  00000-0 -11339-3 0  9992","REF_FRAME":"TEME","OBJECT_ID":"2020-035S","ARG_OF_PERICENTER":"79.0286","OBJECT_NAME":"STARLINK-1456","MEAN_MOTION_DOT":"-0.00001970","TLE_LINE2":"2 45673  53.0574   3.8512 0001345  79.0286 281.0855 15.06397045127453","COUNTRY_CODE":"US","SITE":"AFETR","DECAY_DATE":null,"PERIAPSIS":"546.291","RCS_SIZE":"LARGE","EPOCH":"2022-09-17T14:01:36.628608","INCLINATION":"53.0574","MEAN_ANOMALY":"281.0855","APOAPSIS":"548.154","SEMIMAJOR_AXIS":"6925.358","CLASSIFICATION_TYPE":"U","LAUNCH_DATE":"2020-06-04","MEAN_MOTION_DDOT":"0.0000000000000","REV_AT_EPOCH":"12745","GP_ID":"212868185","MEAN_MOTION":"15.06397045"},{"ECCENTRICITY":"0.00012240","TLE_LINE1":"1 45674U 20035T   22260.65816986 -.00000594  00000-0 -21010-4 0  9995","REF_FRAME":"TEME","OBJECT_ID":"2020-035T","OBJECT_NAME":"STARLINK-1457","ARG_OF_PERICENTER":"85.2656","MEAN_MOTION_DOT":"-0.00000594","RA_OF_ASC_NODE":"3.5226","CENTER_NAME":"EARTH","NORAD_CAT_ID":"45674","OBJECT_TYPE":"PAYLOAD","BSTAR":"-0.00002101000000","ELEMENT_SET_NO":"999","FILE":"3576621","MEAN_ELEMENT_THEORY":"SGP4","TIME_SYSTEM":"UTC","PERIOD":"95.593","EPHEMERIS_TYPE":"0","APOAPSIS":"548.087","SEMIMAJOR_AXIS":"6925.374","CLASSIFICATION_TYPE":"U","REV_AT_EPOCH":"12743","LAUNCH_DATE":"2020-06-04","MEAN_MOTION_DDOT":"0.0000000000000","GP_ID":"212866964","MEAN_MOTION":"15.06391606","TLE_LINE2":"2 45674  53.0569   3.5226 0001224  85.2656 274.8472 15.06391606127433","COUNTRY_CODE":"US","DECAY_DATE":null,"SITE":"AFETR","PERIAPSIS":"546.392","RCS_SIZE":"LARGE","EPOCH":"2022-09-17T15:47:45.875904","MEAN_ANOMALY":"274.8472","INCLINATION":"53.0569"},{"TLE_LINE2":"2 45675  53.0583   3.2821 0001464  76.0619 284.0532 15.06389227127437","COUNTRY_CODE":"US","DECAY_DATE":null,"SITE":"AFETR","PERIAPSIS":"546.233","RCS_SIZE":"LARGE","EPOCH":"2022-09-17T17:07:22.898208","MEAN_ANOMALY":"284.0532","INCLINATION":"53.0583","APOAPSIS":"548.260","SEMIMAJOR_AXIS":"6925.382","CLASSIFICATION_TYPE":"U","REV_AT_EPOCH":"12743","LAUNCH_DATE":"2020-06-04","MEAN_MOTION_DDOT":"0.0000000000000","GP_ID":"212867214","MEAN_MOTION":"15.06389227","RA_OF_ASC_NODE":"3.2821","CENTER_NAME":"EARTH","NORAD_CAT_ID":"45675","OBJECT_TYPE":"PAYLOAD","BSTAR":"-0.00004005800000","ELEMENT_SET_NO":"999","MEAN_ELEMENT_THEORY":"SGP4","FILE":"3576621","TIME_SYSTEM":"UTC","PERIOD":"95.593","EPHEMERIS_TYPE":"0","ECCENTRICITY":"0.00014640","TLE_LINE1":"1 45675U 20035U   22260.71345947 -.00000878  00000-0 -40058-4 0  9995","REF_FRAME":"TEME","OBJECT_ID":"2020-035U","ARG_OF_PERICENTER":"76.0619","OBJECT_NAME":"STARLINK-1458","MEAN_MOTION_DOT":"-0.00000878"},{"MEAN_MOTION_DOT":"-0.00001475","ARG_OF_PERICENTER":"84.2641","OBJECT_NAME":"STARLINK-1460","ECCENTRICITY":"0.00013510","OBJECT_ID":"2020-035V","REF_FRAME":"TEME","TLE_LINE1":"1 45676U 20035V   22260.55128415 -.00001475  00000-0 -80210-4 0  9995","TIME_SYSTEM":"UTC","FILE":"3576276","MEAN_ELEMENT_THEORY":"SGP4","EPHEMERIS_TYPE":"0","PERIOD":"95.593","NORAD_CAT_ID":"45676","CENTER_NAME":"EARTH","RA_OF_ASC_NODE":"4.0130","ELEMENT_SET_NO":"999","BSTAR":"-0.00008021000000","OBJECT_TYPE":"PAYLOAD","REV_AT_EPOCH":"12703","LAUNCH_DATE":"2020-06-04","MEAN_MOTION_DDOT":"0.0000000000000","MEAN_MOTION":"15.06386120","GP_ID":"212788263","APOAPSIS":"548.192","CLASSIFICATION_TYPE":"U","SEMIMAJOR_AXIS":"6925.391","RCS_SIZE":"LARGE","INCLINATION":"53.0557","MEAN_ANOMALY":"275.8502","EPOCH":"2022-09-17T13:13:50.950560","TLE_LINE2":"2 45676  53.0557   4.0130 0001351  84.2641 275.8502 15.06386120127032","PERIAPSIS":"546.320","DECAY_DATE":null,"SITE":"AFETR","COUNTRY_CODE":"US"},{"COUNTRY_CODE":"US","PERIAPSIS":"546.442","DECAY_DATE":null,"SITE":"AFETR","TLE_LINE2":"2 45677  53.0580   3.9461 0001132  84.2442 275.8676 15.06396100127446","EPOCH":"2022-09-17T13:29:45.597984","MEAN_ANOMALY":"275.8676","INCLINATION":"53.0580","RCS_SIZE":"LARGE","CLASSIFICATION_TYPE":"U","SEMIMAJOR_AXIS":"6925.361","APOAPSIS":"548.009","GP_ID":"212811229","MEAN_MOTION":"15.06396100","LAUNCH_DATE":"2020-06-04","MEAN_MOTION_DDOT":"0.0000000000000","REV_AT_EPOCH":"12744","OBJECT_TYPE":"PAYLOAD","BSTAR":"-0.00007577100000","ELEMENT_SET_NO":"999","RA_OF_ASC_NODE":"3.9461","NORAD_CAT_ID":"45677","CENTER_NAME":"EARTH","PERIOD":"95.592","EPHEMERIS_TYPE":"0","TIME_SYSTEM":"UTC","FILE":"3576375","MEAN_ELEMENT_THEORY":"SGP4","REF_FRAME":"TEME","TLE_LINE1":"1 45677U 20035W   22260.56233331 -.00001410  00000-0 -75771-4 0  9996","OBJECT_ID":"2020-035W","ECCENTRICITY":"0.00011320","ARG_OF_PERICENTER":"84.2442","OBJECT_NAME":"STARLINK-1392","MEAN_MOTION_DOT":"-0.00001410"}];
